start=new Date('2023-06-07T00:00:00.000Z').valueOf();
sats=[{"TLE_LINE2":"2 55647  69.9983 204.5615 0003136 273.8144 213.9571 15.38013568  1300","NORAD_CAT_ID":"55647","OBJECT_ID":"2023-021V","APOAPSIS":"454.128","ARG_OF_PERICENTER":"273.8144","RA_OF_ASC_NODE":"204.5615","MEAN_ANOMALY":"213.9571","RCS_SIZE":"LARGE","TIME_SYSTEM":"UTC","TLE_LINE1":"1 55647U 23021V   23157.83334491 -.00898310  00000-0 -26042-1 0  9994","MEAN_MOTION_DDOT":"0.0000000000000","PERIOD":"93.627","CLASSIFICATION_TYPE":"U","LAUNCH_DATE":"2023-02-17","CENTER_NAME":"EARTH","DECAY_DATE":null,"EPOCH":"2023-06-06T20:00:01.000224","SITE":"AFWTR","ECCENTRICITY":"0.00031360","BSTAR":"-0.02604200000000","EPHEMERIS_TYPE":"0","REV_AT_EPOCH":"130","INCLINATION":"69.9983","MEAN_ELEMENT_THEORY":"SGP4","REF_FRAME":"TEME","GP_ID":"233360098","OBJECT_NAME":"STARLINK-5510","SEMIMAJOR_AXIS":"6830.121","PERIAPSIS":"449.844","FILE":"3926571","ELEMENT_SET_NO":"999","MEAN_MOTION":"15.38013568","OBJECT_TYPE":"PAYLOAD","COUNTRY_CODE":"US","MEAN_MOTION_DOT":"-0.00898310"},{"MEAN_ELEMENT_THEORY":"SGP4","REF_FRAME":"TEME","INCLINATION":"69.9986","EPHEMERIS_TYPE":"0","REV_AT_EPOCH":"130","OBJECT_TYPE":"PAYLOAD","MEAN_MOTION":"15.36119623","COUNTRY_CODE":"US","MEAN_MOTION_DOT":"-0.00901787","GP_ID":"233360348","PERIAPSIS":"455.308","FILE":"3926571","ELEMENT_SET_NO":"999","SEMIMAJOR_AXIS":"6835.734","OBJECT_NAME":"STARLINK-5501","RA_OF_ASC_NODE":"204.6268","RCS_SIZE":"LARGE","MEAN_ANOMALY":"157.4565","NORAD_CAT_ID":"55648","TLE_LINE2":"2 55648  69.9986 204.6268 0003351 273.4465 157.4565 15.36119623  1302","APOAPSIS":"459.890","ARG_OF_PERICENTER":"273.4465","OBJECT_ID":"2023-021W","EPOCH":"2023-06-06T20:00:01.000224","DECAY_DATE":null,"CENTER_NAME":"EARTH","SITE":"AFWTR","BSTAR":"-0.02780700000000","ECCENTRICITY":"0.00033510","PERIOD":"93.743","TIME_SYSTEM":"UTC","TLE_LINE1":"1 55648U 23021W   23157.83334491 -.00901787  00000-0 -27807-1 0  9998","MEAN_MOTION_DDOT":"0.0000000000000","LAUNCH_DATE":"2023-02-17","CLASSIFICATION_TYPE":"U"},{"GP_ID":"233361599","FILE":"3926571","ELEMENT_SET_NO":"999","PERIAPSIS":"451.115","OBJECT_NAME":"STARLINK-5469","SEMIMAJOR_AXIS":"6831.391","OBJECT_TYPE":"PAYLOAD","MEAN_MOTION":"15.37584548","MEAN_MOTION_DOT":"-0.00897628","COUNTRY_CODE":"US","INCLINATION":"69.9982","REV_AT_EPOCH":"130","EPHEMERIS_TYPE":"0","MEAN_ELEMENT_THEORY":"SGP4","REF_FRAME":"TEME","PERIOD":"93.653","TLE_LINE1":"1 55649U 23021X   23157.83334491 -.00897628  00000-0 -26387-1 0  9999","MEAN_MOTION_DDOT":"0.0000000000000","TIME_SYSTEM":"UTC","LAUNCH_DATE":"2023-02-17","CLASSIFICATION_TYPE":"U","DECAY_DATE":null,"EPOCH":"2023-06-06T20:00:01.000224","CENTER_NAME":"EARTH","ECCENTRICITY":"0.00031340","SITE":"AFWTR","BSTAR":"-0.02638700000000","TLE_LINE2":"2 55649  69.9982 204.5757 0003134 274.2331 201.2826 15.37584548  1302","NORAD_CAT_ID":"55649","ARG_OF_PERICENTER":"274.2331","APOAPSIS":"455.397","OBJECT_ID":"2023-021X","RA_OF_ASC_NODE":"204.5757","RCS_SIZE":"LARGE","MEAN_ANOMALY":"201.2826"},{"ECCENTRICITY":"0.00031430","SITE":"AFWTR","BSTAR":"-0.02706500000000","CENTER_NAME":"EARTH","DECAY_DATE":null,"EPOCH":"2023-06-06T20:00:01.000224","CLASSIFICATION_TYPE":"U","LAUNCH_DATE":"2023-02-17","TIME_SYSTEM":"UTC","TLE_LINE1":"1 55650U 23021Y   23157.83334491 -.00896682  00000-0 -27065-1 0  9994","MEAN_MOTION_DDOT":"0.0000000000000","PERIOD":"93.703","MEAN_ANOMALY":"180.9735","RCS_SIZE":"LARGE","RA_OF_ASC_NODE":"204.6039","OBJECT_ID":"2023-021Y","APOAPSIS":"457.825","ARG_OF_PERICENTER":"270.1167","NORAD_CAT_ID":"55650","TLE_LINE2":"2 55650  69.9985 204.6039 0003143 270.1167 180.9735 15.36767778  1302","COUNTRY_CODE":"US","MEAN_MOTION_DOT":"-0.00896682","MEAN_MOTION":"15.36767778","OBJECT_TYPE":"PAYLOAD","OBJECT_NAME":"STARLINK-5494","SEMIMAJOR_AXIS":"6833.812","PERIAPSIS":"453.529","FILE":"3926571","ELEMENT_SET_NO":"999","GP_ID":"233361850","REF_FRAME":"TEME","MEAN_ELEMENT_THEORY":"SGP4","EPHEMERIS_TYPE":"0","REV_AT_EPOCH":"130","INCLINATION":"69.9985"},{"CLASSIFICATION_TYPE":"U","LAUNCH_DATE":"2023-02-17","TLE_LINE1":"1 55651U 23021Z   23157.83334491 -.00902432  00000-0 -28199-1 0  9995","MEAN_MOTION_DDOT":"0.0000000000000","TIME_SYSTEM":"UTC","PERIOD":"93.768","BSTAR":"-0.02819900000000","SITE":"AFWTR","ECCENTRICITY":"0.00033420","CENTER_NAME":"EARTH","DECAY_DATE":null,"EPOCH":"2023-06-06T20:00:01.000224","OBJECT_ID":"2023-021Z","ARG_OF_PERICENTER":"272.8678","APOAPSIS":"461.102","TLE_LINE2":"2 55651  69.9985 204.6418 0003342 272.8678 144.7903 15.35709085  1302","NORAD_CAT_ID":"55651","MEAN_ANOMALY":"144.7903","RCS_SIZE":"LARGE","RA_OF_ASC_NODE":"204.6418","OBJECT_NAME":"STARLINK-5506","SEMIMAJOR_AXIS":"6836.952","ELEMENT_SET_NO":"999","FILE":"3926571","PERIAPSIS":"456.532","GP_ID":"233360598","MEAN_MOTION_DOT":"-0.00902432","COUNTRY_CODE":"US","MEAN_MOTION":"15.35709085","OBJECT_TYPE":"PAYLOAD","REV_AT_EPOCH":"130","EPHEMERIS_TYPE":"0","INCLINATION":"69.9985","REF_FRAME":"TEME","MEAN_ELEMENT_THEORY":"SGP4"},{"RCS_SIZE":"LARGE","MEAN_ANOMALY":"192.1264","RA_OF_ASC_NODE":"204.5898","ARG_OF_PERICENTER":"271.3716","APOAPSIS":"456.603","OBJECT_ID":"2023-021AA","TLE_LINE2":"2 55652  69.9984 204.5898 0003134 271.3716 192.1264 15.37177773  1301","NORAD_CAT_ID":"55652","SITE":"AFWTR","ECCENTRICITY":"0.00031340","BSTAR":"-0.02671900000000","DECAY_DATE":null,"EPOCH":"2023-06-06T20:00:01.000224","CENTER_NAME":"EARTH","LAUNCH_DATE":"2023-02-17","CLASSIFICATION_TYPE":"U","PERIOD":"93.678","TLE_LINE1":"1 55652U 23021AA  23157.83334491 -.00897032  00000-0 -26719-1 0  9991","MEAN_MOTION_DDOT":"0.0000000000000","TIME_SYSTEM":"UTC","REF_FRAME":"TEME","MEAN_ELEMENT_THEORY":"SGP4","INCLINATION":"69.9984","REV_AT_EPOCH":"130","EPHEMERIS_TYPE":"0","COUNTRY_CODE":"US","MEAN_MOTION_DOT":"-0.00897032","OBJECT_TYPE":"PAYLOAD","MEAN_MOTION":"15.37177773","ELEMENT_SET_NO":"999","FILE":"3926571","PERIAPSIS":"452.320","SEMIMAJOR_AXIS":"6832.597","OBJECT_NAME":"STARLINK-5487","GP_ID":"233360848"},{"MEAN_ANOMALY":"219.5217","RCS_SIZE":"LARGE","RA_OF_ASC_NODE":"204.5545","OBJECT_ID":"2023-021AB","ARG_OF_PERICENTER":"274.3974","APOAPSIS":"453.479","TLE_LINE2":"2 55653  69.9984 204.5545 0003142 274.3974 219.5217 15.38234139  1302","NORAD_CAT_ID":"55653","SITE":"AFWTR","BSTAR":"-0.02586700000000","ECCENTRICITY":"0.00031420","CENTER_NAME":"EARTH","EPOCH":"2023-06-06T20:00:01.000224","DECAY_DATE":null,"CLASSIFICATION_TYPE":"U","LAUNCH_DATE":"2023-02-17","MEAN_MOTION_DDOT":"0.0000000000000","TLE_LINE1":"1 55653U 23021AB  23157.83334491 -.00898695  00000-0 -25867-1 0  9991","TIME_SYSTEM":"UTC","PERIOD":"93.614","REF_FRAME":"TEME","MEAN_ELEMENT_THEORY":"SGP4","REV_AT_EPOCH":"130","EPHEMERIS_TYPE":"0","INCLINATION":"69.9984","COUNTRY_CODE":"US","MEAN_MOTION_DOT":"-0.00898695","MEAN_MOTION":"15.38234139","OBJECT_TYPE":"PAYLOAD","SEMIMAJOR_AXIS":"6829.468","OBJECT_NAME":"STARLINK-5067","FILE":"3926571","ELEMENT_SET_NO":"999","PERIAPSIS":"449.187","GP_ID":"233361100"},{"GP_ID":"233361351","SEMIMAJOR_AXIS":"6839.499","OBJECT_NAME":"STARLINK-5070","PERIAPSIS":"459.102","FILE":"3926571","ELEMENT_SET_NO":"999","MEAN_MOTION":"15.34851222","OBJECT_TYPE":"PAYLOAD","COUNTRY_CODE":"US","MEAN_MOTION_DOT":"-0.00903039","EPHEMERIS_TYPE":"0","REV_AT_EPOCH":"130","INCLINATION":"69.9987","MEAN_ELEMENT_THEORY":"SGP4","REF_FRAME":"TEME","TIME_SYSTEM":"UTC","MEAN_MOTION_DDOT":"0.0000000000000","TLE_LINE1":"1 55654U 23021AC  23157.83334491 -.00903039  00000-0 -29007-1 0  9991","PERIOD":"93.820","CLASSIFICATION_TYPE":"U","LAUNCH_DATE":"2023-02-17","CENTER_NAME":"EARTH","DECAY_DATE":null,"EPOCH":"2023-06-06T20:00:01.000224","ECCENTRICITY":"0.00033080","SITE":"AFWTR","BSTAR":"-0.02900700000000","NORAD_CAT_ID":"55654","TLE_LINE2":"2 55654  69.9987 204.6741 0003308 272.1862 116.9558 15.34851222  1303","OBJECT_ID":"2023-021AC","APOAPSIS":"463.627","ARG_OF_PERICENTER":"272.1862","RA_OF_ASC_NODE":"204.6741","MEAN_ANOMALY":"116.9558","RCS_SIZE":"LARGE"},{"REF_FRAME":"TEME","MEAN_ELEMENT_THEORY":"SGP4","INCLINATION":"69.9958","EPHEMERIS_TYPE":"0","REV_AT_EPOCH":"1792","MEAN_MOTION_DOT":"0.00000347","COUNTRY_CODE":"US","OBJECT_TYPE":"PAYLOAD","MEAN_MOTION":"15.69932392","PERIAPSIS":"356.650","ELEMENT_SET_NO":"999","FILE":"3926571","OBJECT_NAME":"STARLINK-5267","SEMIMAJOR_AXIS":"6737.227","GP_ID":"233360099","RCS_SIZE":"LARGE","MEAN_ANOMALY":"95.6176","RA_OF_ASC_NODE":"204.0823","APOAPSIS":"361.535","ARG_OF_PERICENTER":"264.4606","OBJECT_ID":"2023-021AD","NORAD_CAT_ID":"55655","TLE_LINE2":"2 55655  69.9958 204.0823 0003626 264.4606  95.6176 15.69932392 17920","BSTAR":"0.00000465840000","SITE":"AFWTR","ECCENTRICITY":"0.00036260","DECAY_DATE":null,"EPOCH":"2023-06-06T13:15:10.668384","CENTER_NAME":"EARTH","LAUNCH_DATE":"2023-02-17","CLASSIFICATION_TYPE":"U","PERIOD":"91.724","TIME_SYSTEM":"UTC","TLE_LINE1":"1 55655U 23021AD  23157.55220681  .00000347  00000-0  46584-5 0  9997","MEAN_MOTION_DDOT":"0.0000000000000"},{"SEMIMAJOR_AXIS":"6828.730","OBJECT_NAME":"STARLINK-5326","FILE":"3926571","ELEMENT_SET_NO":"999","PERIAPSIS":"448.462","GP_ID":"233360349","COUNTRY_CODE":"US","MEAN_MOTION_DOT":"-0.00899339","MEAN_MOTION":"15.38483356","OBJECT_TYPE":"PAYLOAD","REV_AT_EPOCH":"130","EPHEMERIS_TYPE":"0","INCLINATION":"69.9984","REF_FRAME":"TEME","MEAN_ELEMENT_THEORY":"SGP4","CLASSIFICATION_TYPE":"U","LAUNCH_DATE":"2023-02-17","TLE_LINE1":"1 55656U 23021AE  23157.83334491 -.00899339  00000-0 -25677-1 0  9999","MEAN_MOTION_DDOT":"0.0000000000000","TIME_SYSTEM":"UTC","PERIOD":"93.599","BSTAR":"-0.02567700000000","SITE":"AFWTR","ECCENTRICITY":"0.00031250","CENTER_NAME":"EARTH","DECAY_DATE":null,"EPOCH":"2023-06-06T20:00:01.000224","OBJECT_ID":"2023-021AE","ARG_OF_PERICENTER":"274.2109","APOAPSIS":"452.729","TLE_LINE2":"2 55656  69.9984 204.5459 0003125 274.2109 227.2684 15.38483356  1300","NORAD_CAT_ID":"55656","MEAN_ANOMALY":"227.2684","RCS_SIZE":"LARGE","RA_OF_ASC_NODE":"204.5459"}];
